ORBCOMM-X               
1 21576U 91050C   25216.42095775  .00000272  00000+0  93469-4 0  9996
2 21576  98.3406 282.0319 0004494  54.3766 305.7843 14.43292650789077
ORBCOMM FM01            
1 23545U 95017A   25216.52642747  .00005086  00000+0  52798-3 0  9996
2 23545  69.9644 313.5566 0005653 256.1527 103.8999 14.90529477619716
ORBCOMM FM02            
1 23546U 95017B   25216.50699295  .00007460  00000+0  75173-3 0  9995
2 23546  69.9662 332.8339 0006903 252.7655 107.2745 14.91490109619360
ORBCOMM FM08            
1 25112U 97084A   25216.20181022  .00001514  00000+0  46196-3 0  9990
2 25112  45.0137 137.3530 0004829 121.3922 238.7402 14.45929734448323
ORBCOMM FM10            
1 25113U 97084B   25216.19003217  .00001410  00000+0  43499-3 0  9996
2 25113  45.0148 139.8745 0004176  74.8497 285.2816 14.45711493623462
ORBCOMM FM11            
1 25114U 97084C   25216.20290698  .00001425  00000+0  44146-3 0  9996
2 25114  45.0134 140.5328 0004861  79.9961 280.1438 14.45459856448424
ORBCOMM FM12            
1 25115U 97084D   25216.16468277  .00001310  00000+0  40882-3 0  9998
2 25115  45.0140 140.4614 0004058  72.0073 288.1220 14.45481908448212
ORBCOMM FM09            
1 25116U 97084E   25216.20116043  .00001337  00000+0  41751-3 0  9990
2 25116  45.0144 141.2669 0005563  67.1819 292.9619 14.45355962448452
